start=new Date('2023-01-31T00:00:00.000Z').valueOf();
sats=[{"PERIOD":"95.436","TLE_LINE2":"2 53931  53.2158 348.1893 0001245  95.8850 143.0309 15.08863572  1309","ECCENTRICITY":"0.00012450","CLASSIFICATION_TYPE":"U","EPOCH":"2023-01-31T00:00:00.999648","OBJECT_ID":"2022-119AX","REF_FRAME":"TEME","DECAY_DATE":null,"MEAN_MOTION_DOT":"-0.00036053","BSTAR":"-0.00225710000000","OBJECT_NAME":"STARLINK-5015","MEAN_MOTION_DDOT":"0.0000000000000","MEAN_ELEMENT_THEORY":"SGP4","COUNTRY_CODE":"US","APOAPSIS":"540.535","NORAD_CAT_ID":"53931","TIME_SYSTEM":"UTC","RCS_SIZE":"LARGE","RA_OF_ASC_NODE":"348.1893","TLE_LINE1":"1 53931U 22119AX  23031.00001157 -.00036053  00000-0 -22571-2 0  9997","GP_ID":"224057899","ARG_OF_PERICENTER":"95.8850","REV_AT_EPOCH":"130","MEAN_MOTION":"15.08863572","EPHEMERIS_TYPE":"0","FILE":"3765849","SITE":"AFETR","OBJECT_TYPE":"PAYLOAD","ELEMENT_SET_NO":"999","MEAN_ANOMALY":"143.0309","SEMIMAJOR_AXIS":"6917.808","INCLINATION":"53.2158","LAUNCH_DATE":"2022-09-24","PERIAPSIS":"538.812","CENTER_NAME":"EARTH"},{"SITE":"AFETR","OBJECT_TYPE":"PAYLOAD","ELEMENT_SET_NO":"999","ARG_OF_PERICENTER":"86.8006","GP_ID":"224056658","REV_AT_EPOCH":"2087","MEAN_MOTION":"15.08842651","EPHEMERIS_TYPE":"0","FILE":"3765849","APOAPSIS":"540.896","NORAD_CAT_ID":"53932","RCS_SIZE":"LARGE","RA_OF_ASC_NODE":"349.2741","TIME_SYSTEM":"UTC","TLE_LINE1":"1 53932U 22119AY  23030.87149629 -.00000855  00000-0 -35651-4 0  9995","PERIAPSIS":"538.579","LAUNCH_DATE":"2022-09-24","CENTER_NAME":"EARTH","INCLINATION":"53.2182","SEMIMAJOR_AXIS":"6917.872","MEAN_ANOMALY":"273.3178","ECCENTRICITY":"0.00016750","CLASSIFICATION_TYPE":"U","TLE_LINE2":"2 53932  53.2182 349.2741 0001675  86.8006 273.3178 15.08842651 20870","PERIOD":"95.437","MEAN_MOTION_DDOT":"0.0000000000000","MEAN_ELEMENT_THEORY":"SGP4","OBJECT_NAME":"STARLINK-4772","COUNTRY_CODE":"US","MEAN_MOTION_DOT":"-0.00000855","BSTAR":"-0.00003565100000","OBJECT_ID":"2022-119AY","EPOCH":"2023-01-30T20:54:57.279456","REF_FRAME":"TEME","DECAY_DATE":null},{"TLE_LINE2":"2 53933  53.2144 353.7440 0001377  91.6212 268.4938 15.08839025 20800","PERIOD":"95.438","CLASSIFICATION_TYPE":"U","ECCENTRICITY":"0.00013770","DECAY_DATE":null,"OBJECT_ID":"2022-119AZ","EPOCH":"2023-01-30T21:37:53.132160","REF_FRAME":"TEME","MEAN_MOTION_DDOT":"0.0000000000000","MEAN_ELEMENT_THEORY":"SGP4","OBJECT_NAME":"STARLINK-4782","COUNTRY_CODE":"US","MEAN_MOTION_DOT":"0.00003342","BSTAR":"0.00022796000000","FILE":"3765849","EPHEMERIS_TYPE":"0","GP_ID":"224056907","ARG_OF_PERICENTER":"91.6212","REV_AT_EPOCH":"2080","MEAN_MOTION":"15.08839025","TLE_LINE1":"1 53933U 22119AZ  23030.90130940  .00003342  00000-0  22796-3 0  9993","NORAD_CAT_ID":"53933","APOAPSIS":"540.701","TIME_SYSTEM":"UTC","RCS_SIZE":"LARGE","RA_OF_ASC_NODE":"353.7440","ELEMENT_SET_NO":"999","SITE":"AFETR","OBJECT_TYPE":"PAYLOAD","SEMIMAJOR_AXIS":"6917.883","MEAN_ANOMALY":"268.4938","CENTER_NAME":"EARTH","PERIAPSIS":"538.796","LAUNCH_DATE":"2022-09-24","INCLINATION":"53.2144"},{"TLE_LINE2":"2 53934  53.2159 351.8102 0001436  87.2318 272.8838 15.08835965 20790","PERIOD":"95.438","CLASSIFICATION_TYPE":"U","ECCENTRICITY":"0.00014360","DECAY_DATE":null,"OBJECT_ID":"2022-119BA","EPOCH":"2023-01-30T06:04:38.595936","REF_FRAME":"TEME","MEAN_MOTION_DDOT":"0.0000000000000","OBJECT_NAME":"STARLINK-4775","MEAN_ELEMENT_THEORY":"SGP4","COUNTRY_CODE":"US","MEAN_MOTION_DOT":"-0.00001699","BSTAR":"-0.00008871500000","EPHEMERIS_TYPE":"0","FILE":"3765576","ARG_OF_PERICENTER":"87.2318","GP_ID":"223999440","REV_AT_EPOCH":"2079","MEAN_MOTION":"15.08835965","TLE_LINE1":"1 53934U 22119BA  23030.25322449 -.00001699  00000-0 -88715-4 0  9998","NORAD_CAT_ID":"53934","APOAPSIS":"540.751","TIME_SYSTEM":"UTC","RCS_SIZE":"LARGE","RA_OF_ASC_NODE":"351.8102","ELEMENT_SET_NO":"999","SITE":"AFETR","OBJECT_TYPE":"PAYLOAD","SEMIMAJOR_AXIS":"6917.893","MEAN_ANOMALY":"272.8838","CENTER_NAME":"EARTH","PERIAPSIS":"538.764","LAUNCH_DATE":"2022-09-24","INCLINATION":"53.2159"},{"COUNTRY_CODE":"US","MEAN_MOTION_DDOT":"0.0000000000000","MEAN_ELEMENT_THEORY":"SGP4","OBJECT_NAME":"STARLINK-5000","BSTAR":"-0.02131500000000","MEAN_MOTION_DOT":"-0.00962455","DECAY_DATE":null,"REF_FRAME":"TEME","EPOCH":"2023-01-31T00:00:00.999648","OBJECT_ID":"2022-119BB","CLASSIFICATION_TYPE":"U","ECCENTRICITY":"0.00011280","TLE_LINE2":"2 53935  53.2102 340.7151 0001128  96.0540 294.9184 15.45860876  1308","PERIOD":"93.152","CENTER_NAME":"EARTH","LAUNCH_DATE":"2022-09-24","PERIAPSIS":"428.084","INCLINATION":"53.2102","SEMIMAJOR_AXIS":"6806.987","MEAN_ANOMALY":"294.9184","ELEMENT_SET_NO":"999","OBJECT_TYPE":"PAYLOAD","SITE":"AFETR","EPHEMERIS_TYPE":"0","FILE":"3765849","MEAN_MOTION":"15.45860876","ARG_OF_PERICENTER":"96.0540","GP_ID":"224057403","REV_AT_EPOCH":"130","TLE_LINE1":"1 53935U 22119BB  23031.00001157 -.00962455  00000-0 -21315-1 0  9999","TIME_SYSTEM":"UTC","RCS_SIZE":"LARGE","RA_OF_ASC_NODE":"340.7151","APOAPSIS":"429.620","NORAD_CAT_ID":"53935"},{"SEMIMAJOR_AXIS":"6917.828","MEAN_ANOMALY":"273.2510","PERIAPSIS":"538.760","LAUNCH_DATE":"2022-09-24","CENTER_NAME":"EARTH","INCLINATION":"53.2176","MEAN_MOTION":"15.08857248","ARG_OF_PERICENTER":"86.8636","GP_ID":"224056160","REV_AT_EPOCH":"2088","EPHEMERIS_TYPE":"0","FILE":"3765849","RCS_SIZE":"LARGE","RA_OF_ASC_NODE":"348.7032","TIME_SYSTEM":"UTC","NORAD_CAT_ID":"53936","APOAPSIS":"540.625","TLE_LINE1":"1 53936U 22119BC  23030.89349467  .00001112  00000-0  87918-4 0  9991","OBJECT_TYPE":"PAYLOAD","SITE":"AFETR","ELEMENT_SET_NO":"999","REF_FRAME":"TEME","OBJECT_ID":"2022-119BC","EPOCH":"2023-01-30T21:26:37.939488","DECAY_DATE":null,"COUNTRY_CODE":"US","MEAN_ELEMENT_THEORY":"SGP4","MEAN_MOTION_DDOT":"0.0000000000000","OBJECT_NAME":"STARLINK-4791","BSTAR":"0.00008791800000","MEAN_MOTION_DOT":"0.00001112","TLE_LINE2":"2 53936  53.2176 348.7032 0001348  86.8636 273.2510 15.08857248 20888","PERIOD":"95.436","ECCENTRICITY":"0.00013480","CLASSIFICATION_TYPE":"U"},{"ARG_OF_PERICENTER":"91.5830","GP_ID":"224056409","REV_AT_EPOCH":"130","MEAN_MOTION":"15.24620252","EPHEMERIS_TYPE":"0","FILE":"3765849","APOAPSIS":"492.941","NORAD_CAT_ID":"53937","RCS_SIZE":"MEDIUM","TIME_SYSTEM":"UTC","RA_OF_ASC_NODE":"343.9892","TLE_LINE1":"1 53937U 22119BD  23031.00001157 -.00953139  00000-0 -41239-1 0  9997","SITE":"AFETR","OBJECT_TYPE":"PAYLOAD","ELEMENT_SET_NO":"999","SEMIMAJOR_AXIS":"6870.063","MEAN_ANOMALY":"105.3756","PERIAPSIS":"490.915","LAUNCH_DATE":"2022-09-24","CENTER_NAME":"EARTH","INCLINATION":"53.2128","TLE_LINE2":"2 53937  53.2128 343.9892 0001475  91.5830 105.3756 15.24620252  1301","PERIOD":"94.450","ECCENTRICITY":"0.00014750","CLASSIFICATION_TYPE":"U","EPOCH":"2023-01-31T00:00:00.999648","OBJECT_ID":"2022-119BD","REF_FRAME":"TEME","DECAY_DATE":null,"MEAN_MOTION_DDOT":"0.0000000000000","OBJECT_NAME":"STARLINK-4765","MEAN_ELEMENT_THEORY":"SGP4","COUNTRY_CODE":"US","MEAN_MOTION_DOT":"-0.00953139","BSTAR":"-0.04123900000000"},{"OBJECT_ID":"2022-125A","EPOCH":"2023-01-30T22:46:49.328256","REF_FRAME":"TEME","DECAY_DATE":null,"MEAN_ELEMENT_THEORY":"SGP4","MEAN_MOTION_DDOT":"0.0000000000000","OBJECT_NAME":"STARLINK-4633","COUNTRY_CODE":"US","MEAN_MOTION_DOT":"0.00002432","BSTAR":"0.00017079000000","TLE_LINE2":"2 53964  53.2157 273.8360 0001184  87.2189 272.8939 15.08845162 18166","PERIOD":"95.437","ECCENTRICITY":"0.00011840","CLASSIFICATION_TYPE":"U","SEMIMAJOR_AXIS":"6917.865","MEAN_ANOMALY":"272.8939","PERIAPSIS":"538.911","LAUNCH_DATE":"2022-10-05","CENTER_NAME":"EARTH","INCLINATION":"53.2157","GP_ID":"224056411","ARG_OF_PERICENTER":"87.2189","REV_AT_EPOCH":"1816","MEAN_MOTION":"15.08845162","EPHEMERIS_TYPE":"0","FILE":"3765849","APOAPSIS":"540.549","NORAD_CAT_ID":"53964","TIME_SYSTEM":"UTC","RCS_SIZE":"LARGE","RA_OF_ASC_NODE":"273.8360","TLE_LINE1":"1 53964U 22125A   23030.94918204  .00002432  00000-0  17079-3 0  9992","SITE":"AFWTR","OBJECT_TYPE":"PAYLOAD","ELEMENT_SET_NO":"999"},{"CLASSIFICATION_TYPE":"U","ECCENTRICITY":"0.00014630","PERIOD":"95.437","TLE_LINE2":"2 53965  53.2159 273.8156 0001463  89.4948 270.6212 15.08846603 18160","MEAN_MOTION_DOT":"0.00001860","BSTAR":"0.00013487000000","MEAN_MOTION_DDOT":"0.0000000000000","MEAN_ELEMENT_THEORY":"SGP4","OBJECT_NAME":"STARLINK-4578","COUNTRY_CODE":"US","DECAY_DATE":null,"OBJECT_ID":"2022-125B","EPOCH":"2023-01-30T22:41:30.529536","REF_FRAME":"TEME","ELEMENT_SET_NO":"999","SITE":"AFWTR","OBJECT_TYPE":"PAYLOAD","TLE_LINE1":"1 53965U 22125B   23030.94549224  .00001860  00000-0  13487-3 0  9998","NORAD_CAT_ID":"53965","APOAPSIS":"540.737","RCS_SIZE":"LARGE","TIME_SYSTEM":"UTC","RA_OF_ASC_NODE":"273.8156","EPHEMERIS_TYPE":"0","FILE":"3765849","GP_ID":"224057654","ARG_OF_PERICENTER":"89.4948","REV_AT_EPOCH":"1816","MEAN_MOTION":"15.08846603","INCLINATION":"53.2159","CENTER_NAME":"EARTH","PERIAPSIS":"538.713","LAUNCH_DATE":"2022-10-05","MEAN_ANOMALY":"270.6212","SEMIMAJOR_AXIS":"6917.860"},{"SITE":"AFWTR","OBJECT_TYPE":"PAYLOAD","ELEMENT_SET_NO":"999","GP_ID":"224057902","REV_AT_EPOCH":"1816","ARG_OF_PERICENTER":"103.3053","MEAN_MOTION":"15.08848786","FILE":"3765849","EPHEMERIS_TYPE":"0","NORAD_CAT_ID":"53966","APOAPSIS":"540.599","RCS_SIZE":"MEDIUM","RA_OF_ASC_NODE":"273.7903","TIME_SYSTEM":"UTC","TLE_LINE1":"1 53966U 22125C   23030.94180660 -.00000553  00000-0 -16630-4 0  9998","PERIAPSIS":"538.838","LAUNCH_DATE":"2022-10-05","CENTER_NAME":"EARTH","INCLINATION":"53.2171","SEMIMAJOR_AXIS":"6917.854","MEAN_ANOMALY":"256.8081","ECCENTRICITY":"0.00012730","CLASSIFICATION_TYPE":"U","TLE_LINE2":"2 53966  53.2171 273.7903 0001273 103.3053 256.8081 15.08848786 18160","PERIOD":"95.437","MEAN_MOTION_DDOT":"0.0000000000000","MEAN_ELEMENT_THEORY":"SGP4","OBJECT_NAME":"STARLINK-4635","COUNTRY_CODE":"US","MEAN_MOTION_DOT":"-0.00000553","BSTAR":"-0.00001663000000","OBJECT_ID":"2022-125C","EPOCH":"2023-01-30T22:36:12.090240","REF_FRAME":"TEME","DECAY_DATE":null}];
